{"type":"FeatureCollection","name":"RedeSub - cobertura pública aproximada","metadata":{"public_feature_count":415,"coordinate_precision_decimals":3,"notice":"Visualização aproximada. Não representa disponibilidade garantida. A viabilidade deve ser confirmada pelo endereço."},"features":[{"type":"Feature","properties":{"count":1,"display":"Área com infraestrutura próxima"},"geometry":{"type":"Point","coordinates":[-48.48,-1.274]}},{"type":"Feature","properties":{"count":1,"display":"Área com infraestrutura próxima"},"geometry":{"type":"Point","coordinates":[-48.48,-1.273]}},{"type":"Feature","properties":{"count":1,"display":"Área com infraestrutura próxima"},"geometry":{"type":"Point","coordinates":[-48.479,-1.286]}},{"type":"Feature","properties":{"count":1,"display":"Área com infraestrutura próxima"},"geometry":{"type":"Point","coordinates":[-48.479,-1.285]}},{"type":"Feature","properties":{"count":1,"display":"Área com infraestrutura próxima"},"geometry":{"type":"Point","coordinates":[-48.479,-1.276]}},{"type":"Feature","properties":{"count":1,"display":"Área com infraestrutura próxima"},"geometry":{"type":"Point","coordinates":[-48.479,-1.275]}},{"type":"Feature","properties":{"count":1,"display":"Área com infraestrutura próxima"},"geometry":{"type":"Point","coordinates":[-48.479,-1.272]}},{"type":"Feature","properties":{"count":1,"display":"Área com infraestrutura próxima"},"geometry":{"type":"Point","coordinates":[-48.479,-1.271]}},{"type":"Feature","properties":{"count":1,"display":"Área com infraestrutura próxima"},"geometry":{"type":"Point","coordinates":[-48.478,-1.284]}},{"type":"Feature","properties":{"count":1,"display":"Área com infraestrutura próxima"},"geometry":{"type":"Point","coordinates":[-48.478,-1.278]}},{"type":"Feature","properties":{"count":1,"display":"Área com infraestrutura próxima"},"geometry":{"type":"Point","coordinates":[-48.478,-1.275]}},{"type":"Feature","properties":{"count":1,"display":"Área com infraestrutura próxima"},"geometry":{"type":"Point","coordinates":[-48.478,-1.274]}},{"type":"Feature","properties":{"count":2,"display":"Área com infraestrutura próxima"},"geometry":{"type":"Point","coordinates":[-48.478,-1.273]}},{"type":"Feature","properties":{"count":1,"display":"Área com infraestrutura próxima"},"geometry":{"type":"Point","coordinates":[-48.478,-1.27]}},{"type":"Feature","properties":{"count":1,"display":"Área com infraestrutura próxima"},"geometry":{"type":"Point","coordinates":[-48.477,-1.284]}},{"type":"Feature","properties":{"count":1,"display":"Área com infraestrutura próxima"},"geometry":{"type":"Point","coordinates":[-48.477,-1.279]}},{"type":"Feature","properties":{"count":2,"display":"Área com infraestrutura próxima"},"geometry":{"type":"Point","coordinates":[-48.477,-1.277]}},{"type":"Feature","properties":{"count":1,"display":"Área com infraestrutura próxima"},"geometry":{"type":"Point","coordinates":[-48.477,-1.276]}},{"type":"Feature","properties":{"count":2,"display":"Área com infraestrutura próxima"},"geometry":{"type":"Point","coordinates":[-48.477,-1.274]}},{"type":"Feature","properties":{"count":2,"display":"Área com infraestrutura próxima"},"geometry":{"type":"Point","coordinates":[-48.477,-1.272]}},{"type":"Feature","properties":{"count":2,"display":"Área com infraestrutura próxima"},"geometry":{"type":"Point","coordinates":[-48.477,-1.27]}},{"type":"Feature","properties":{"count":1,"display":"Área com infraestrutura próxima"},"geometry":{"type":"Point","coordinates":[-48.476,-1.283]}},{"type":"Feature","properties":{"count":1,"display":"Área com infraestrutura próxima"},"geometry":{"type":"Point","coordinates":[-48.476,-1.279]}},{"type":"Feature","properties":{"count":1,"display":"Área com infraestrutura próxima"},"geometry":{"type":"Point","coordinates":[-48.476,-1.278]}},{"type":"Feature","properties":{"count":1,"display":"Área com infraestrutura próxima"},"geometry":{"type":"Point","coordinates":[-48.476,-1.276]}},{"type":"Feature","properties":{"count":2,"display":"Área com infraestrutura próxima"},"geometry":{"type":"Point","coordinates":[-48.476,-1.275]}},{"type":"Feature","properties":{"count":1,"display":"Área com infraestrutura próxima"},"geometry":{"type":"Point","coordinates":[-48.476,-1.273]}},{"type":"Feature","properties":{"count":2,"display":"Área com infraestrutura próxima"},"geometry":{"type":"Point","coordinates":[-48.476,-1.272]}},{"type":"Feature","properties":{"count":1,"display":"Área com infraestrutura próxima"},"geometry":{"type":"Point","coordinates":[-48.476,-1.27]}},{"type":"Feature","properties":{"count":1,"display":"Área com infraestrutura próxima"},"geometry":{"type":"Point","coordinates":[-48.476,-1.269]}},{"type":"Feature","properties":{"count":1,"display":"Área com infraestrutura próxima"},"geometry":{"type":"Point","coordinates":[-48.475,-1.283]}},{"type":"Feature","properties":{"count":1,"display":"Área com infraestrutura próxima"},"geometry":{"type":"Point","coordinates":[-48.475,-1.282]}},{"type":"Feature","properties":{"count":1,"display":"Área com infraestrutura próxima"},"geometry":{"type":"Point","coordinates":[-48.475,-1.281]}},{"type":"Feature","properties":{"count":2,"display":"Área com infraestrutura próxima"},"geometry":{"type":"Point","coordinates":[-48.475,-1.28]}},{"type":"Feature","properties":{"count":1,"display":"Área com infraestrutura próxima"},"geometry":{"type":"Point","coordinates":[-48.475,-1.279]}},{"type":"Feature","properties":{"count":1,"display":"Área com infraestrutura próxima"},"geometry":{"type":"Point","coordinates":[-48.475,-1.278]}},{"type":"Feature","properties":{"count":2,"display":"Área com infraestrutura próxima"},"geometry":{"type":"Point","coordinates":[-48.475,-1.277]}},{"type":"Feature","properties":{"count":1,"display":"Área com infraestrutura próxima"},"geometry":{"type":"Point","coordinates":[-48.475,-1.276]}},{"type":"Feature","properties":{"count":2,"display":"Área com infraestrutura próxima"},"geometry":{"type":"Point","coordinates":[-48.475,-1.274]}},{"type":"Feature","properties":{"count":1,"display":"Área com infraestrutura próxima"},"geometry":{"type":"Point","coordinates":[-48.475,-1.273]}},{"type":"Feature","properties":{"count":1,"display":"Área com infraestrutura próxima"},"geometry":{"type":"Point","coordinates":[-48.475,-1.272]}},{"type":"Feature","properties":{"count":1,"display":"Área com infraestrutura próxima"},"geometry":{"type":"Point","coordinates":[-48.475,-1.269]}},{"type":"Feature","properties":{"count":1,"display":"Área com infraestrutura próxima"},"geometry":{"type":"Point","coordinates":[-48.475,-1.268]}},{"type":"Feature","properties":{"count":1,"display":"Área com infraestrutura próxima"},"geometry":{"type":"Point","coordinates":[-48.474,-1.282]}},{"type":"Feature","properties":{"count":1,"display":"Área com infraestrutura próxima"},"geometry":{"type":"Point","coordinates":[-48.474,-1.279]}},{"type":"Feature","properties":{"count":1,"display":"Área com infraestrutura próxima"},"geometry":{"type":"Point","coordinates":[-48.474,-1.278]}},{"type":"Feature","properties":{"count":1,"display":"Área com infraestrutura próxima"},"geometry":{"type":"Point","coordinates":[-48.474,-1.277]}},{"type":"Feature","properties":{"count":2,"display":"Área com infraestrutura próxima"},"geometry":{"type":"Point","coordinates":[-48.474,-1.275]}},{"type":"Feature","properties":{"count":1,"display":"Área com infraestrutura próxima"},"geometry":{"type":"Point","coordinates":[-48.474,-1.274]}},{"type":"Feature","properties":{"count":1,"display":"Área com infraestrutura próxima"},"geometry":{"type":"Point","coordinates":[-48.474,-1.273]}},{"type":"Feature","properties":{"count":1,"display":"Área com infraestrutura próxima"},"geometry":{"type":"Point","coordinates":[-48.474,-1.272]}},{"type":"Feature","properties":{"count":2,"display":"Área com infraestrutura próxima"},"geometry":{"type":"Point","coordinates":[-48.474,-1.271]}},{"type":"Feature","properties":{"count":1,"display":"Área com infraestrutura próxima"},"geometry":{"type":"Point","coordinates":[-48.474,-1.27]}},{"type":"Feature","properties":{"count":1,"display":"Área com infraestrutura próxima"},"geometry":{"type":"Point","coordinates":[-48.474,-1.268]}},{"type":"Feature","properties":{"count":1,"display":"Área com infraestrutura próxima"},"geometry":{"type":"Point","coordinates":[-48.474,-1.267]}},{"type":"Feature","properties":{"count":1,"display":"Área com infraestrutura próxima"},"geometry":{"type":"Point","coordinates":[-48.473,-1.282]}},{"type":"Feature","properties":{"count":1,"display":"Área com infraestrutura próxima"},"geometry":{"type":"Point","coordinates":[-48.473,-1.281]}},{"type":"Feature","properties":{"count":1,"display":"Área com infraestrutura próxima"},"geometry":{"type":"Point","coordinates":[-48.473,-1.28]}},{"type":"Feature","properties":{"count":1,"display":"Área com infraestrutura próxima"},"geometry":{"type":"Point","coordinates":[-48.473,-1.279]}},{"type":"Feature","properties":{"count":1,"display":"Área com infraestrutura próxima"},"geometry":{"type":"Point","coordinates":[-48.473,-1.277]}},{"type":"Feature","properties":{"count":1,"display":"Área com infraestrutura próxima"},"geometry":{"type":"Point","coordinates":[-48.473,-1.276]}},{"type":"Feature","properties":{"count":1,"display":"Área com infraestrutura próxima"},"geometry":{"type":"Point","coordinates":[-48.473,-1.275]}},{"type":"Feature","properties":{"count":1,"display":"Área com infraestrutura próxima"},"geometry":{"type":"Point","coordinates":[-48.473,-1.272]}},{"type":"Feature","properties":{"count":2,"display":"Área com infraestrutura próxima"},"geometry":{"type":"Point","coordinates":[-48.473,-1.271]}},{"type":"Feature","properties":{"count":1,"display":"Área com infraestrutura próxima"},"geometry":{"type":"Point","coordinates":[-48.473,-1.27]}},{"type":"Feature","properties":{"count":2,"display":"Área com infraestrutura próxima"},"geometry":{"type":"Point","coordinates":[-48.473,-1.269]}},{"type":"Feature","properties":{"count":1,"display":"Área com infraestrutura próxima"},"geometry":{"type":"Point","coordinates":[-48.473,-1.268]}},{"type":"Feature","properties":{"count":1,"display":"Área com infraestrutura próxima"},"geometry":{"type":"Point","coordinates":[-48.473,-1.267]}},{"type":"Feature","properties":{"count":1,"display":"Área com infraestrutura próxima"},"geometry":{"type":"Point","coordinates":[-48.473,-1.264]}},{"type":"Feature","properties":{"count":2,"display":"Área com infraestrutura próxima"},"geometry":{"type":"Point","coordinates":[-48.472,-1.282]}},{"type":"Feature","properties":{"count":1,"display":"Área com infraestrutura próxima"},"geometry":{"type":"Point","coordinates":[-48.472,-1.281]}},{"type":"Feature","properties":{"count":1,"display":"Área com infraestrutura próxima"},"geometry":{"type":"Point","coordinates":[-48.472,-1.28]}},{"type":"Feature","properties":{"count":2,"display":"Área com infraestrutura próxima"},"geometry":{"type":"Point","coordinates":[-48.472,-1.279]}},{"type":"Feature","properties":{"count":1,"display":"Área com infraestrutura próxima"},"geometry":{"type":"Point","coordinates":[-48.472,-1.271]}},{"type":"Feature","properties":{"count":2,"display":"Área com infraestrutura próxima"},"geometry":{"type":"Point","coordinates":[-48.472,-1.269]}},{"type":"Feature","properties":{"count":1,"display":"Área com infraestrutura próxima"},"geometry":{"type":"Point","coordinates":[-48.472,-1.266]}},{"type":"Feature","properties":{"count":1,"display":"Área com infraestrutura próxima"},"geometry":{"type":"Point","coordinates":[-48.472,-1.265]}},{"type":"Feature","properties":{"count":1,"display":"Área com infraestrutura próxima"},"geometry":{"type":"Point","coordinates":[-48.472,-1.263]}},{"type":"Feature","properties":{"count":1,"display":"Área com infraestrutura próxima"},"geometry":{"type":"Point","coordinates":[-48.472,-1.262]}},{"type":"Feature","properties":{"count":2,"display":"Área com infraestrutura próxima"},"geometry":{"type":"Point","coordinates":[-48.471,-1.28]}},{"type":"Feature","properties":{"count":2,"display":"Área com infraestrutura próxima"},"geometry":{"type":"Point","coordinates":[-48.471,-1.278]}},{"type":"Feature","properties":{"count":2,"display":"Área com infraestrutura próxima"},"geometry":{"type":"Point","coordinates":[-48.471,-1.27]}},{"type":"Feature","properties":{"count":1,"display":"Área com infraestrutura próxima"},"geometry":{"type":"Point","coordinates":[-48.471,-1.269]}},{"type":"Feature","properties":{"count":1,"display":"Área com infraestrutura próxima"},"geometry":{"type":"Point","coordinates":[-48.471,-1.266]}},{"type":"Feature","properties":{"count":1,"display":"Área com infraestrutura próxima"},"geometry":{"type":"Point","coordinates":[-48.471,-1.264]}},{"type":"Feature","properties":{"count":1,"display":"Área com infraestrutura próxima"},"geometry":{"type":"Point","coordinates":[-48.471,-1.259]}},{"type":"Feature","properties":{"count":1,"display":"Área com infraestrutura próxima"},"geometry":{"type":"Point","coordinates":[-48.47,-1.281]}},{"type":"Feature","properties":{"count":2,"display":"Área com infraestrutura próxima"},"geometry":{"type":"Point","coordinates":[-48.47,-1.279]}},{"type":"Feature","properties":{"count":1,"display":"Área com infraestrutura próxima"},"geometry":{"type":"Point","coordinates":[-48.47,-1.267]}},{"type":"Feature","properties":{"count":1,"display":"Área com infraestrutura próxima"},"geometry":{"type":"Point","coordinates":[-48.47,-1.263]}},{"type":"Feature","properties":{"count":1,"display":"Área com infraestrutura próxima"},"geometry":{"type":"Point","coordinates":[-48.47,-1.262]}},{"type":"Feature","properties":{"count":1,"display":"Área com infraestrutura próxima"},"geometry":{"type":"Point","coordinates":[-48.47,-1.26]}},{"type":"Feature","properties":{"count":1,"display":"Área com infraestrutura próxima"},"geometry":{"type":"Point","coordinates":[-48.47,-1.258]}},{"type":"Feature","properties":{"count":1,"display":"Área com infraestrutura próxima"},"geometry":{"type":"Point","coordinates":[-48.469,-1.281]}},{"type":"Feature","properties":{"count":1,"display":"Área com infraestrutura próxima"},"geometry":{"type":"Point","coordinates":[-48.469,-1.28]}},{"type":"Feature","properties":{"count":2,"display":"Área com infraestrutura próxima"},"geometry":{"type":"Point","coordinates":[-48.469,-1.267]}},{"type":"Feature","properties":{"count":1,"display":"Área com infraestrutura próxima"},"geometry":{"type":"Point","coordinates":[-48.469,-1.265]}},{"type":"Feature","properties":{"count":2,"display":"Área com infraestrutura próxima"},"geometry":{"type":"Point","coordinates":[-48.469,-1.263]}},{"type":"Feature","properties":{"count":2,"display":"Área com infraestrutura próxima"},"geometry":{"type":"Point","coordinates":[-48.469,-1.261]}},{"type":"Feature","properties":{"count":2,"display":"Área com infraestrutura próxima"},"geometry":{"type":"Point","coordinates":[-48.469,-1.259]}},{"type":"Feature","properties":{"count":2,"display":"Área com infraestrutura próxima"},"geometry":{"type":"Point","coordinates":[-48.469,-1.257]}},{"type":"Feature","properties":{"count":1,"display":"Área com infraestrutura próxima"},"geometry":{"type":"Point","coordinates":[-48.468,-1.282]}},{"type":"Feature","properties":{"count":1,"display":"Área com infraestrutura próxima"},"geometry":{"type":"Point","coordinates":[-48.468,-1.267]}},{"type":"Feature","properties":{"count":1,"display":"Área com infraestrutura próxima"},"geometry":{"type":"Point","coordinates":[-48.468,-1.266]}},{"type":"Feature","properties":{"count":2,"display":"Área com infraestrutura próxima"},"geometry":{"type":"Point","coordinates":[-48.468,-1.265]}},{"type":"Feature","properties":{"count":1,"display":"Área com infraestrutura próxima"},"geometry":{"type":"Point","coordinates":[-48.468,-1.264]}},{"type":"Feature","properties":{"count":2,"display":"Área com infraestrutura próxima"},"geometry":{"type":"Point","coordinates":[-48.468,-1.26]}},{"type":"Feature","properties":{"count":1,"display":"Área com infraestrutura próxima"},"geometry":{"type":"Point","coordinates":[-48.468,-1.259]}},{"type":"Feature","properties":{"count":1,"display":"Área com infraestrutura próxima"},"geometry":{"type":"Point","coordinates":[-48.468,-1.258]}},{"type":"Feature","properties":{"count":2,"display":"Área com infraestrutura próxima"},"geometry":{"type":"Point","coordinates":[-48.468,-1.256]}},{"type":"Feature","properties":{"count":2,"display":"Área com infraestrutura próxima"},"geometry":{"type":"Point","coordinates":[-48.467,-1.265]}},{"type":"Feature","properties":{"count":2,"display":"Área com infraestrutura próxima"},"geometry":{"type":"Point","coordinates":[-48.467,-1.261]}},{"type":"Feature","properties":{"count":1,"display":"Área com infraestrutura próxima"},"geometry":{"type":"Point","coordinates":[-48.467,-1.26]}},{"type":"Feature","properties":{"count":1,"display":"Área com infraestrutura próxima"},"geometry":{"type":"Point","coordinates":[-48.467,-1.258]}},{"type":"Feature","properties":{"count":1,"display":"Área com infraestrutura próxima"},"geometry":{"type":"Point","coordinates":[-48.466,-1.274]}},{"type":"Feature","properties":{"count":1,"display":"Área com infraestrutura próxima"},"geometry":{"type":"Point","coordinates":[-48.466,-1.267]}},{"type":"Feature","properties":{"count":1,"display":"Área com infraestrutura próxima"},"geometry":{"type":"Point","coordinates":[-48.466,-1.265]}},{"type":"Feature","properties":{"count":1,"display":"Área com infraestrutura próxima"},"geometry":{"type":"Point","coordinates":[-48.466,-1.263]}},{"type":"Feature","properties":{"count":2,"display":"Área com infraestrutura próxima"},"geometry":{"type":"Point","coordinates":[-48.466,-1.262]}},{"type":"Feature","properties":{"count":2,"display":"Área com infraestrutura próxima"},"geometry":{"type":"Point","coordinates":[-48.466,-1.26]}},{"type":"Feature","properties":{"count":1,"display":"Área com infraestrutura próxima"},"geometry":{"type":"Point","coordinates":[-48.466,-1.259]}},{"type":"Feature","properties":{"count":1,"display":"Área com infraestrutura próxima"},"geometry":{"type":"Point","coordinates":[-48.466,-1.256]}},{"type":"Feature","properties":{"count":1,"display":"Área com infraestrutura próxima"},"geometry":{"type":"Point","coordinates":[-48.465,-1.266]}},{"type":"Feature","properties":{"count":2,"display":"Área com infraestrutura próxima"},"geometry":{"type":"Point","coordinates":[-48.465,-1.263]}},{"type":"Feature","properties":{"count":1,"display":"Área com infraestrutura próxima"},"geometry":{"type":"Point","coordinates":[-48.465,-1.26]}},{"type":"Feature","properties":{"count":2,"display":"Área com infraestrutura próxima"},"geometry":{"type":"Point","coordinates":[-48.465,-1.259]}},{"type":"Feature","properties":{"count":1,"display":"Área com infraestrutura próxima"},"geometry":{"type":"Point","coordinates":[-48.465,-1.258]}},{"type":"Feature","properties":{"count":1,"display":"Área com infraestrutura próxima"},"geometry":{"type":"Point","coordinates":[-48.465,-1.257]}},{"type":"Feature","properties":{"count":1,"display":"Área com infraestrutura próxima"},"geometry":{"type":"Point","coordinates":[-48.465,-1.254]}},{"type":"Feature","properties":{"count":1,"display":"Área com infraestrutura próxima"},"geometry":{"type":"Point","coordinates":[-48.464,-1.275]}},{"type":"Feature","properties":{"count":2,"display":"Área com infraestrutura próxima"},"geometry":{"type":"Point","coordinates":[-48.464,-1.264]}},{"type":"Feature","properties":{"count":1,"display":"Área com infraestrutura próxima"},"geometry":{"type":"Point","coordinates":[-48.464,-1.26]}},{"type":"Feature","properties":{"count":2,"display":"Área com infraestrutura próxima"},"geometry":{"type":"Point","coordinates":[-48.464,-1.256]}},{"type":"Feature","properties":{"count":1,"display":"Área com infraestrutura próxima"},"geometry":{"type":"Point","coordinates":[-48.464,-1.253]}},{"type":"Feature","properties":{"count":1,"display":"Área com infraestrutura próxima"},"geometry":{"type":"Point","coordinates":[-48.463,-1.268]}},{"type":"Feature","properties":{"count":2,"display":"Área com infraestrutura próxima"},"geometry":{"type":"Point","coordinates":[-48.463,-1.265]}},{"type":"Feature","properties":{"count":1,"display":"Área com infraestrutura próxima"},"geometry":{"type":"Point","coordinates":[-48.463,-1.261]}},{"type":"Feature","properties":{"count":2,"display":"Área com infraestrutura próxima"},"geometry":{"type":"Point","coordinates":[-48.463,-1.257]}},{"type":"Feature","properties":{"count":1,"display":"Área com infraestrutura próxima"},"geometry":{"type":"Point","coordinates":[-48.463,-1.256]}},{"type":"Feature","properties":{"count":1,"display":"Área com infraestrutura próxima"},"geometry":{"type":"Point","coordinates":[-48.463,-1.255]}},{"type":"Feature","properties":{"count":1,"display":"Área com infraestrutura próxima"},"geometry":{"type":"Point","coordinates":[-48.462,-1.266]}},{"type":"Feature","properties":{"count":1,"display":"Área com infraestrutura próxima"},"geometry":{"type":"Point","coordinates":[-48.462,-1.263]}},{"type":"Feature","properties":{"count":1,"display":"Área com infraestrutura próxima"},"geometry":{"type":"Point","coordinates":[-48.462,-1.262]}},{"type":"Feature","properties":{"count":1,"display":"Área com infraestrutura próxima"},"geometry":{"type":"Point","coordinates":[-48.462,-1.259]}},{"type":"Feature","properties":{"count":1,"display":"Área com infraestrutura próxima"},"geometry":{"type":"Point","coordinates":[-48.462,-1.258]}},{"type":"Feature","properties":{"count":2,"display":"Área com infraestrutura próxima"},"geometry":{"type":"Point","coordinates":[-48.462,-1.257]}},{"type":"Feature","properties":{"count":1,"display":"Área com infraestrutura próxima"},"geometry":{"type":"Point","coordinates":[-48.462,-1.256]}},{"type":"Feature","properties":{"count":2,"display":"Área com infraestrutura próxima"},"geometry":{"type":"Point","coordinates":[-48.462,-1.255]}},{"type":"Feature","properties":{"count":1,"display":"Área com infraestrutura próxima"},"geometry":{"type":"Point","coordinates":[-48.462,-1.252]}},{"type":"Feature","properties":{"count":2,"display":"Área com infraestrutura próxima"},"geometry":{"type":"Point","coordinates":[-48.461,-1.269]}},{"type":"Feature","properties":{"count":1,"display":"Área com infraestrutura próxima"},"geometry":{"type":"Point","coordinates":[-48.461,-1.268]}},{"type":"Feature","properties":{"count":1,"display":"Área com infraestrutura próxima"},"geometry":{"type":"Point","coordinates":[-48.461,-1.267]}},{"type":"Feature","properties":{"count":2,"display":"Área com infraestrutura próxima"},"geometry":{"type":"Point","coordinates":[-48.461,-1.264]}},{"type":"Feature","properties":{"count":1,"display":"Área com infraestrutura próxima"},"geometry":{"type":"Point","coordinates":[-48.461,-1.263]}},{"type":"Feature","properties":{"count":2,"display":"Área com infraestrutura próxima"},"geometry":{"type":"Point","coordinates":[-48.461,-1.26]}},{"type":"Feature","properties":{"count":1,"display":"Área com infraestrutura próxima"},"geometry":{"type":"Point","coordinates":[-48.461,-1.256]}},{"type":"Feature","properties":{"count":1,"display":"Área com infraestrutura próxima"},"geometry":{"type":"Point","coordinates":[-48.461,-1.255]}},{"type":"Feature","properties":{"count":2,"display":"Área com infraestrutura próxima"},"geometry":{"type":"Point","coordinates":[-48.461,-1.254]}},{"type":"Feature","properties":{"count":1,"display":"Área com infraestrutura próxima"},"geometry":{"type":"Point","coordinates":[-48.461,-1.252]}},{"type":"Feature","properties":{"count":1,"display":"Área com infraestrutura próxima"},"geometry":{"type":"Point","coordinates":[-48.46,-1.269]}},{"type":"Feature","properties":{"count":1,"display":"Área com infraestrutura próxima"},"geometry":{"type":"Point","coordinates":[-48.46,-1.268]}},{"type":"Feature","properties":{"count":1,"display":"Área com infraestrutura próxima"},"geometry":{"type":"Point","coordinates":[-48.46,-1.265]}},{"type":"Feature","properties":{"count":2,"display":"Área com infraestrutura próxima"},"geometry":{"type":"Point","coordinates":[-48.46,-1.264]}},{"type":"Feature","properties":{"count":2,"display":"Área com infraestrutura próxima"},"geometry":{"type":"Point","coordinates":[-48.46,-1.262]}},{"type":"Feature","properties":{"count":1,"display":"Área com infraestrutura próxima"},"geometry":{"type":"Point","coordinates":[-48.46,-1.261]}},{"type":"Feature","properties":{"count":1,"display":"Área com infraestrutura próxima"},"geometry":{"type":"Point","coordinates":[-48.46,-1.26]}},{"type":"Feature","properties":{"count":1,"display":"Área com infraestrutura próxima"},"geometry":{"type":"Point","coordinates":[-48.46,-1.257]}},{"type":"Feature","properties":{"count":1,"display":"Área com infraestrutura próxima"},"geometry":{"type":"Point","coordinates":[-48.46,-1.256]}},{"type":"Feature","properties":{"count":4,"display":"Área com infraestrutura próxima"},"geometry":{"type":"Point","coordinates":[-48.46,-1.254]}},{"type":"Feature","properties":{"count":1,"display":"Área com infraestrutura próxima"},"geometry":{"type":"Point","coordinates":[-48.46,-1.253]}},{"type":"Feature","properties":{"count":1,"display":"Área com infraestrutura próxima"},"geometry":{"type":"Point","coordinates":[-48.459,-1.309]}},{"type":"Feature","properties":{"count":1,"display":"Área com infraestrutura próxima"},"geometry":{"type":"Point","coordinates":[-48.459,-1.269]}},{"type":"Feature","properties":{"count":1,"display":"Área com infraestrutura próxima"},"geometry":{"type":"Point","coordinates":[-48.459,-1.266]}},{"type":"Feature","properties":{"count":1,"display":"Área com infraestrutura próxima"},"geometry":{"type":"Point","coordinates":[-48.459,-1.265]}},{"type":"Feature","properties":{"count":1,"display":"Área com infraestrutura próxima"},"geometry":{"type":"Point","coordinates":[-48.459,-1.262]}},{"type":"Feature","properties":{"count":1,"display":"Área com infraestrutura próxima"},"geometry":{"type":"Point","coordinates":[-48.459,-1.261]}},{"type":"Feature","properties":{"count":1,"display":"Área com infraestrutura próxima"},"geometry":{"type":"Point","coordinates":[-48.459,-1.258]}},{"type":"Feature","properties":{"count":1,"display":"Área com infraestrutura próxima"},"geometry":{"type":"Point","coordinates":[-48.459,-1.257]}},{"type":"Feature","properties":{"count":3,"display":"Área com infraestrutura próxima"},"geometry":{"type":"Point","coordinates":[-48.459,-1.255]}},{"type":"Feature","properties":{"count":1,"display":"Área com infraestrutura próxima"},"geometry":{"type":"Point","coordinates":[-48.459,-1.254]}},{"type":"Feature","properties":{"count":1,"display":"Área com infraestrutura próxima"},"geometry":{"type":"Point","coordinates":[-48.459,-1.253]}},{"type":"Feature","properties":{"count":1,"display":"Área com infraestrutura próxima"},"geometry":{"type":"Point","coordinates":[-48.459,-1.252]}},{"type":"Feature","properties":{"count":1,"display":"Área com infraestrutura próxima"},"geometry":{"type":"Point","coordinates":[-48.459,-1.25]}},{"type":"Feature","properties":{"count":1,"display":"Área com infraestrutura próxima"},"geometry":{"type":"Point","coordinates":[-48.458,-1.309]}},{"type":"Feature","properties":{"count":1,"display":"Área com infraestrutura próxima"},"geometry":{"type":"Point","coordinates":[-48.458,-1.27]}},{"type":"Feature","properties":{"count":1,"display":"Área com infraestrutura próxima"},"geometry":{"type":"Point","coordinates":[-48.458,-1.267]}},{"type":"Feature","properties":{"count":1,"display":"Área com infraestrutura próxima"},"geometry":{"type":"Point","coordinates":[-48.458,-1.266]}},{"type":"Feature","properties":{"count":2,"display":"Área com infraestrutura próxima"},"geometry":{"type":"Point","coordinates":[-48.458,-1.263]}},{"type":"Feature","properties":{"count":1,"display":"Área com infraestrutura próxima"},"geometry":{"type":"Point","coordinates":[-48.458,-1.262]}},{"type":"Feature","properties":{"count":2,"display":"Área com infraestrutura próxima"},"geometry":{"type":"Point","coordinates":[-48.458,-1.259]}},{"type":"Feature","properties":{"count":1,"display":"Área com infraestrutura próxima"},"geometry":{"type":"Point","coordinates":[-48.458,-1.258]}},{"type":"Feature","properties":{"count":1,"display":"Área com infraestrutura próxima"},"geometry":{"type":"Point","coordinates":[-48.458,-1.256]}},{"type":"Feature","properties":{"count":1,"display":"Área com infraestrutura próxima"},"geometry":{"type":"Point","coordinates":[-48.458,-1.252]}},{"type":"Feature","properties":{"count":1,"display":"Área com infraestrutura próxima"},"geometry":{"type":"Point","coordinates":[-48.458,-1.251]}},{"type":"Feature","properties":{"count":1,"display":"Área com infraestrutura próxima"},"geometry":{"type":"Point","coordinates":[-48.457,-1.309]}},{"type":"Feature","properties":{"count":1,"display":"Área com infraestrutura próxima"},"geometry":{"type":"Point","coordinates":[-48.457,-1.269]}},{"type":"Feature","properties":{"count":2,"display":"Área com infraestrutura próxima"},"geometry":{"type":"Point","coordinates":[-48.457,-1.268]}},{"type":"Feature","properties":{"count":1,"display":"Área com infraestrutura próxima"},"geometry":{"type":"Point","coordinates":[-48.457,-1.267]}},{"type":"Feature","properties":{"count":1,"display":"Área com infraestrutura próxima"},"geometry":{"type":"Point","coordinates":[-48.457,-1.264]}},{"type":"Feature","properties":{"count":1,"display":"Área com infraestrutura próxima"},"geometry":{"type":"Point","coordinates":[-48.457,-1.263]}},{"type":"Feature","properties":{"count":2,"display":"Área com infraestrutura próxima"},"geometry":{"type":"Point","coordinates":[-48.457,-1.26]}},{"type":"Feature","properties":{"count":3,"display":"Área com infraestrutura próxima"},"geometry":{"type":"Point","coordinates":[-48.457,-1.258]}},{"type":"Feature","properties":{"count":1,"display":"Área com infraestrutura próxima"},"geometry":{"type":"Point","coordinates":[-48.457,-1.257]}},{"type":"Feature","properties":{"count":1,"display":"Área com infraestrutura próxima"},"geometry":{"type":"Point","coordinates":[-48.457,-1.255]}},{"type":"Feature","properties":{"count":2,"display":"Área com infraestrutura próxima"},"geometry":{"type":"Point","coordinates":[-48.457,-1.251]}},{"type":"Feature","properties":{"count":1,"display":"Área com infraestrutura próxima"},"geometry":{"type":"Point","coordinates":[-48.457,-1.249]}},{"type":"Feature","properties":{"count":1,"display":"Área com infraestrutura próxima"},"geometry":{"type":"Point","coordinates":[-48.457,-1.248]}},{"type":"Feature","properties":{"count":1,"display":"Área com infraestrutura próxima"},"geometry":{"type":"Point","coordinates":[-48.456,-1.308]}},{"type":"Feature","properties":{"count":1,"display":"Área com infraestrutura próxima"},"geometry":{"type":"Point","coordinates":[-48.456,-1.265]}},{"type":"Feature","properties":{"count":1,"display":"Área com infraestrutura próxima"},"geometry":{"type":"Point","coordinates":[-48.456,-1.264]}},{"type":"Feature","properties":{"count":2,"display":"Área com infraestrutura próxima"},"geometry":{"type":"Point","coordinates":[-48.456,-1.261]}},{"type":"Feature","properties":{"count":1,"display":"Área com infraestrutura próxima"},"geometry":{"type":"Point","coordinates":[-48.456,-1.26]}},{"type":"Feature","properties":{"count":2,"display":"Área com infraestrutura próxima"},"geometry":{"type":"Point","coordinates":[-48.456,-1.258]}},{"type":"Feature","properties":{"count":1,"display":"Área com infraestrutura próxima"},"geometry":{"type":"Point","coordinates":[-48.456,-1.257]}},{"type":"Feature","properties":{"count":1,"display":"Área com infraestrutura próxima"},"geometry":{"type":"Point","coordinates":[-48.456,-1.253]}},{"type":"Feature","properties":{"count":3,"display":"Área com infraestrutura próxima"},"geometry":{"type":"Point","coordinates":[-48.456,-1.252]}},{"type":"Feature","properties":{"count":2,"display":"Área com infraestrutura próxima"},"geometry":{"type":"Point","coordinates":[-48.456,-1.25]}},{"type":"Feature","properties":{"count":1,"display":"Área com infraestrutura próxima"},"geometry":{"type":"Point","coordinates":[-48.455,-1.308]}},{"type":"Feature","properties":{"count":1,"display":"Área com infraestrutura próxima"},"geometry":{"type":"Point","coordinates":[-48.455,-1.268]}},{"type":"Feature","properties":{"count":2,"display":"Área com infraestrutura próxima"},"geometry":{"type":"Point","coordinates":[-48.455,-1.266]}},{"type":"Feature","properties":{"count":1,"display":"Área com infraestrutura próxima"},"geometry":{"type":"Point","coordinates":[-48.455,-1.262]}},{"type":"Feature","properties":{"count":1,"display":"Área com infraestrutura próxima"},"geometry":{"type":"Point","coordinates":[-48.455,-1.261]}},{"type":"Feature","properties":{"count":3,"display":"Área com infraestrutura próxima"},"geometry":{"type":"Point","coordinates":[-48.455,-1.259]}},{"type":"Feature","properties":{"count":1,"display":"Área com infraestrutura próxima"},"geometry":{"type":"Point","coordinates":[-48.455,-1.255]}},{"type":"Feature","properties":{"count":1,"display":"Área com infraestrutura próxima"},"geometry":{"type":"Point","coordinates":[-48.455,-1.254]}},{"type":"Feature","properties":{"count":2,"display":"Área com infraestrutura próxima"},"geometry":{"type":"Point","coordinates":[-48.455,-1.253]}},{"type":"Feature","properties":{"count":2,"display":"Área com infraestrutura próxima"},"geometry":{"type":"Point","coordinates":[-48.455,-1.251]}},{"type":"Feature","properties":{"count":1,"display":"Área com infraestrutura próxima"},"geometry":{"type":"Point","coordinates":[-48.455,-1.247]}},{"type":"Feature","properties":{"count":1,"display":"Área com infraestrutura próxima"},"geometry":{"type":"Point","coordinates":[-48.454,-1.308]}},{"type":"Feature","properties":{"count":1,"display":"Área com infraestrutura próxima"},"geometry":{"type":"Point","coordinates":[-48.454,-1.263]}},{"type":"Feature","properties":{"count":1,"display":"Área com infraestrutura próxima"},"geometry":{"type":"Point","coordinates":[-48.454,-1.262]}},{"type":"Feature","properties":{"count":1,"display":"Área com infraestrutura próxima"},"geometry":{"type":"Point","coordinates":[-48.454,-1.261]}},{"type":"Feature","properties":{"count":2,"display":"Área com infraestrutura próxima"},"geometry":{"type":"Point","coordinates":[-48.454,-1.26]}},{"type":"Feature","properties":{"count":1,"display":"Área com infraestrutura próxima"},"geometry":{"type":"Point","coordinates":[-48.454,-1.258]}},{"type":"Feature","properties":{"count":1,"display":"Área com infraestrutura próxima"},"geometry":{"type":"Point","coordinates":[-48.454,-1.257]}},{"type":"Feature","properties":{"count":1,"display":"Área com infraestrutura próxima"},"geometry":{"type":"Point","coordinates":[-48.454,-1.256]}},{"type":"Feature","properties":{"count":2,"display":"Área com infraestrutura próxima"},"geometry":{"type":"Point","coordinates":[-48.454,-1.254]}},{"type":"Feature","properties":{"count":2,"display":"Área com infraestrutura próxima"},"geometry":{"type":"Point","coordinates":[-48.454,-1.253]}},{"type":"Feature","properties":{"count":2,"display":"Área com infraestrutura próxima"},"geometry":{"type":"Point","coordinates":[-48.454,-1.252]}},{"type":"Feature","properties":{"count":1,"display":"Área com infraestrutura próxima"},"geometry":{"type":"Point","coordinates":[-48.454,-1.248]}},{"type":"Feature","properties":{"count":1,"display":"Área com infraestrutura próxima"},"geometry":{"type":"Point","coordinates":[-48.453,-1.308]}},{"type":"Feature","properties":{"count":1,"display":"Área com infraestrutura próxima"},"geometry":{"type":"Point","coordinates":[-48.453,-1.266]}},{"type":"Feature","properties":{"count":2,"display":"Área com infraestrutura próxima"},"geometry":{"type":"Point","coordinates":[-48.453,-1.264]}},{"type":"Feature","properties":{"count":1,"display":"Área com infraestrutura próxima"},"geometry":{"type":"Point","coordinates":[-48.453,-1.263]}},{"type":"Feature","properties":{"count":2,"display":"Área com infraestrutura próxima"},"geometry":{"type":"Point","coordinates":[-48.453,-1.26]}},{"type":"Feature","properties":{"count":1,"display":"Área com infraestrutura próxima"},"geometry":{"type":"Point","coordinates":[-48.453,-1.257]}},{"type":"Feature","properties":{"count":1,"display":"Área com infraestrutura próxima"},"geometry":{"type":"Point","coordinates":[-48.453,-1.256]}},{"type":"Feature","properties":{"count":2,"display":"Área com infraestrutura próxima"},"geometry":{"type":"Point","coordinates":[-48.453,-1.255]}},{"type":"Feature","properties":{"count":2,"display":"Área com infraestrutura próxima"},"geometry":{"type":"Point","coordinates":[-48.453,-1.253]}},{"type":"Feature","properties":{"count":1,"display":"Área com infraestrutura próxima"},"geometry":{"type":"Point","coordinates":[-48.453,-1.249]}},{"type":"Feature","properties":{"count":5,"display":"Área com infraestrutura próxima"},"geometry":{"type":"Point","coordinates":[-48.452,-1.264]}},{"type":"Feature","properties":{"count":4,"display":"Área com infraestrutura próxima"},"geometry":{"type":"Point","coordinates":[-48.452,-1.263]}},{"type":"Feature","properties":{"count":1,"display":"Área com infraestrutura próxima"},"geometry":{"type":"Point","coordinates":[-48.452,-1.261]}},{"type":"Feature","properties":{"count":1,"display":"Área com infraestrutura próxima"},"geometry":{"type":"Point","coordinates":[-48.452,-1.26]}},{"type":"Feature","properties":{"count":1,"display":"Área com infraestrutura próxima"},"geometry":{"type":"Point","coordinates":[-48.452,-1.259]}},{"type":"Feature","properties":{"count":2,"display":"Área com infraestrutura próxima"},"geometry":{"type":"Point","coordinates":[-48.452,-1.258]}},{"type":"Feature","properties":{"count":3,"display":"Área com infraestrutura próxima"},"geometry":{"type":"Point","coordinates":[-48.452,-1.256]}},{"type":"Feature","properties":{"count":2,"display":"Área com infraestrutura próxima"},"geometry":{"type":"Point","coordinates":[-48.452,-1.254]}},{"type":"Feature","properties":{"count":1,"display":"Área com infraestrutura próxima"},"geometry":{"type":"Point","coordinates":[-48.452,-1.25]}},{"type":"Feature","properties":{"count":2,"display":"Área com infraestrutura próxima"},"geometry":{"type":"Point","coordinates":[-48.452,-1.245]}},{"type":"Feature","properties":{"count":2,"display":"Área com infraestrutura próxima"},"geometry":{"type":"Point","coordinates":[-48.452,-1.243]}},{"type":"Feature","properties":{"count":1,"display":"Área com infraestrutura próxima"},"geometry":{"type":"Point","coordinates":[-48.451,-1.267]}},{"type":"Feature","properties":{"count":7,"display":"Área com infraestrutura próxima"},"geometry":{"type":"Point","coordinates":[-48.451,-1.264]}},{"type":"Feature","properties":{"count":14,"display":"Área com infraestrutura próxima"},"geometry":{"type":"Point","coordinates":[-48.451,-1.263]}},{"type":"Feature","properties":{"count":7,"display":"Área com infraestrutura próxima"},"geometry":{"type":"Point","coordinates":[-48.451,-1.262]}},{"type":"Feature","properties":{"count":1,"display":"Área com infraestrutura próxima"},"geometry":{"type":"Point","coordinates":[-48.451,-1.258]}},{"type":"Feature","properties":{"count":1,"display":"Área com infraestrutura próxima"},"geometry":{"type":"Point","coordinates":[-48.451,-1.257]}},{"type":"Feature","properties":{"count":2,"display":"Área com infraestrutura próxima"},"geometry":{"type":"Point","coordinates":[-48.451,-1.255]}},{"type":"Feature","properties":{"count":1,"display":"Área com infraestrutura próxima"},"geometry":{"type":"Point","coordinates":[-48.451,-1.251]}},{"type":"Feature","properties":{"count":1,"display":"Área com infraestrutura próxima"},"geometry":{"type":"Point","coordinates":[-48.451,-1.244]}},{"type":"Feature","properties":{"count":2,"display":"Área com infraestrutura próxima"},"geometry":{"type":"Point","coordinates":[-48.451,-1.242]}},{"type":"Feature","properties":{"count":1,"display":"Área com infraestrutura próxima"},"geometry":{"type":"Point","coordinates":[-48.45,-1.275]}},{"type":"Feature","properties":{"count":1,"display":"Área com infraestrutura próxima"},"geometry":{"type":"Point","coordinates":[-48.45,-1.268]}},{"type":"Feature","properties":{"count":4,"display":"Área com infraestrutura próxima"},"geometry":{"type":"Point","coordinates":[-48.45,-1.264]}},{"type":"Feature","properties":{"count":6,"display":"Área com infraestrutura próxima"},"geometry":{"type":"Point","coordinates":[-48.45,-1.263]}},{"type":"Feature","properties":{"count":13,"display":"Área com infraestrutura próxima"},"geometry":{"type":"Point","coordinates":[-48.45,-1.262]}},{"type":"Feature","properties":{"count":2,"display":"Área com infraestrutura próxima"},"geometry":{"type":"Point","coordinates":[-48.45,-1.261]}},{"type":"Feature","properties":{"count":1,"display":"Área com infraestrutura próxima"},"geometry":{"type":"Point","coordinates":[-48.45,-1.259]}},{"type":"Feature","properties":{"count":2,"display":"Área com infraestrutura próxima"},"geometry":{"type":"Point","coordinates":[-48.45,-1.258]}},{"type":"Feature","properties":{"count":1,"display":"Área com infraestrutura próxima"},"geometry":{"type":"Point","coordinates":[-48.45,-1.257]}},{"type":"Feature","properties":{"count":2,"display":"Área com infraestrutura próxima"},"geometry":{"type":"Point","coordinates":[-48.45,-1.256]}},{"type":"Feature","properties":{"count":1,"display":"Área com infraestrutura próxima"},"geometry":{"type":"Point","coordinates":[-48.45,-1.253]}},{"type":"Feature","properties":{"count":1,"display":"Área com infraestrutura próxima"},"geometry":{"type":"Point","coordinates":[-48.45,-1.247]}},{"type":"Feature","properties":{"count":1,"display":"Área com infraestrutura próxima"},"geometry":{"type":"Point","coordinates":[-48.45,-1.246]}},{"type":"Feature","properties":{"count":1,"display":"Área com infraestrutura próxima"},"geometry":{"type":"Point","coordinates":[-48.45,-1.245]}},{"type":"Feature","properties":{"count":1,"display":"Área com infraestrutura próxima"},"geometry":{"type":"Point","coordinates":[-48.45,-1.243]}},{"type":"Feature","properties":{"count":1,"display":"Área com infraestrutura próxima"},"geometry":{"type":"Point","coordinates":[-48.45,-1.241]}},{"type":"Feature","properties":{"count":1,"display":"Área com infraestrutura próxima"},"geometry":{"type":"Point","coordinates":[-48.449,-1.271]}},{"type":"Feature","properties":{"count":1,"display":"Área com infraestrutura próxima"},"geometry":{"type":"Point","coordinates":[-48.449,-1.265]}},{"type":"Feature","properties":{"count":1,"display":"Área com infraestrutura próxima"},"geometry":{"type":"Point","coordinates":[-48.449,-1.262]}},{"type":"Feature","properties":{"count":1,"display":"Área com infraestrutura próxima"},"geometry":{"type":"Point","coordinates":[-48.449,-1.261]}},{"type":"Feature","properties":{"count":3,"display":"Área com infraestrutura próxima"},"geometry":{"type":"Point","coordinates":[-48.449,-1.259]}},{"type":"Feature","properties":{"count":1,"display":"Área com infraestrutura próxima"},"geometry":{"type":"Point","coordinates":[-48.449,-1.258]}},{"type":"Feature","properties":{"count":2,"display":"Área com infraestrutura próxima"},"geometry":{"type":"Point","coordinates":[-48.449,-1.257]}},{"type":"Feature","properties":{"count":1,"display":"Área com infraestrutura próxima"},"geometry":{"type":"Point","coordinates":[-48.449,-1.255]}},{"type":"Feature","properties":{"count":1,"display":"Área com infraestrutura próxima"},"geometry":{"type":"Point","coordinates":[-48.449,-1.254]}},{"type":"Feature","properties":{"count":1,"display":"Área com infraestrutura próxima"},"geometry":{"type":"Point","coordinates":[-48.449,-1.248]}},{"type":"Feature","properties":{"count":1,"display":"Área com infraestrutura próxima"},"geometry":{"type":"Point","coordinates":[-48.449,-1.242]}},{"type":"Feature","properties":{"count":1,"display":"Área com infraestrutura próxima"},"geometry":{"type":"Point","coordinates":[-48.448,-1.273]}},{"type":"Feature","properties":{"count":1,"display":"Área com infraestrutura próxima"},"geometry":{"type":"Point","coordinates":[-48.448,-1.271]}},{"type":"Feature","properties":{"count":2,"display":"Área com infraestrutura próxima"},"geometry":{"type":"Point","coordinates":[-48.448,-1.261]}},{"type":"Feature","properties":{"count":2,"display":"Área com infraestrutura próxima"},"geometry":{"type":"Point","coordinates":[-48.448,-1.26]}},{"type":"Feature","properties":{"count":1,"display":"Área com infraestrutura próxima"},"geometry":{"type":"Point","coordinates":[-48.448,-1.256]}},{"type":"Feature","properties":{"count":1,"display":"Área com infraestrutura próxima"},"geometry":{"type":"Point","coordinates":[-48.448,-1.255]}},{"type":"Feature","properties":{"count":1,"display":"Área com infraestrutura próxima"},"geometry":{"type":"Point","coordinates":[-48.448,-1.251]}},{"type":"Feature","properties":{"count":1,"display":"Área com infraestrutura próxima"},"geometry":{"type":"Point","coordinates":[-48.448,-1.249]}},{"type":"Feature","properties":{"count":1,"display":"Área com infraestrutura próxima"},"geometry":{"type":"Point","coordinates":[-48.448,-1.248]}},{"type":"Feature","properties":{"count":1,"display":"Área com infraestrutura próxima"},"geometry":{"type":"Point","coordinates":[-48.447,-1.271]}},{"type":"Feature","properties":{"count":1,"display":"Área com infraestrutura próxima"},"geometry":{"type":"Point","coordinates":[-48.447,-1.263]}},{"type":"Feature","properties":{"count":1,"display":"Área com infraestrutura próxima"},"geometry":{"type":"Point","coordinates":[-48.447,-1.262]}},{"type":"Feature","properties":{"count":1,"display":"Área com infraestrutura próxima"},"geometry":{"type":"Point","coordinates":[-48.447,-1.26]}},{"type":"Feature","properties":{"count":2,"display":"Área com infraestrutura próxima"},"geometry":{"type":"Point","coordinates":[-48.447,-1.258]}},{"type":"Feature","properties":{"count":1,"display":"Área com infraestrutura próxima"},"geometry":{"type":"Point","coordinates":[-48.447,-1.257]}},{"type":"Feature","properties":{"count":1,"display":"Área com infraestrutura próxima"},"geometry":{"type":"Point","coordinates":[-48.447,-1.256]}},{"type":"Feature","properties":{"count":1,"display":"Área com infraestrutura próxima"},"geometry":{"type":"Point","coordinates":[-48.447,-1.25]}},{"type":"Feature","properties":{"count":1,"display":"Área com infraestrutura próxima"},"geometry":{"type":"Point","coordinates":[-48.447,-1.249]}},{"type":"Feature","properties":{"count":1,"display":"Área com infraestrutura próxima"},"geometry":{"type":"Point","coordinates":[-48.446,-1.273]}},{"type":"Feature","properties":{"count":1,"display":"Área com infraestrutura próxima"},"geometry":{"type":"Point","coordinates":[-48.446,-1.27]}},{"type":"Feature","properties":{"count":1,"display":"Área com infraestrutura próxima"},"geometry":{"type":"Point","coordinates":[-48.446,-1.262]}},{"type":"Feature","properties":{"count":1,"display":"Área com infraestrutura próxima"},"geometry":{"type":"Point","coordinates":[-48.446,-1.261]}},{"type":"Feature","properties":{"count":1,"display":"Área com infraestrutura próxima"},"geometry":{"type":"Point","coordinates":[-48.446,-1.258]}},{"type":"Feature","properties":{"count":1,"display":"Área com infraestrutura próxima"},"geometry":{"type":"Point","coordinates":[-48.446,-1.256]}},{"type":"Feature","properties":{"count":1,"display":"Área com infraestrutura próxima"},"geometry":{"type":"Point","coordinates":[-48.446,-1.253]}},{"type":"Feature","properties":{"count":1,"display":"Área com infraestrutura próxima"},"geometry":{"type":"Point","coordinates":[-48.446,-1.252]}},{"type":"Feature","properties":{"count":2,"display":"Área com infraestrutura próxima"},"geometry":{"type":"Point","coordinates":[-48.446,-1.251]}},{"type":"Feature","properties":{"count":1,"display":"Área com infraestrutura próxima"},"geometry":{"type":"Point","coordinates":[-48.446,-1.236]}},{"type":"Feature","properties":{"count":1,"display":"Área com infraestrutura próxima"},"geometry":{"type":"Point","coordinates":[-48.445,-1.282]}},{"type":"Feature","properties":{"count":1,"display":"Área com infraestrutura próxima"},"geometry":{"type":"Point","coordinates":[-48.445,-1.274]}},{"type":"Feature","properties":{"count":1,"display":"Área com infraestrutura próxima"},"geometry":{"type":"Point","coordinates":[-48.445,-1.273]}},{"type":"Feature","properties":{"count":1,"display":"Área com infraestrutura próxima"},"geometry":{"type":"Point","coordinates":[-48.445,-1.272]}},{"type":"Feature","properties":{"count":1,"display":"Área com infraestrutura próxima"},"geometry":{"type":"Point","coordinates":[-48.445,-1.269]}},{"type":"Feature","properties":{"count":1,"display":"Área com infraestrutura próxima"},"geometry":{"type":"Point","coordinates":[-48.445,-1.259]}},{"type":"Feature","properties":{"count":1,"display":"Área com infraestrutura próxima"},"geometry":{"type":"Point","coordinates":[-48.444,-1.261]}},{"type":"Feature","properties":{"count":1,"display":"Área com infraestrutura próxima"},"geometry":{"type":"Point","coordinates":[-48.444,-1.251]}},{"type":"Feature","properties":{"count":1,"display":"Área com infraestrutura próxima"},"geometry":{"type":"Point","coordinates":[-48.444,-1.233]}},{"type":"Feature","properties":{"count":1,"display":"Área com infraestrutura próxima"},"geometry":{"type":"Point","coordinates":[-48.443,-1.262]}},{"type":"Feature","properties":{"count":1,"display":"Área com infraestrutura próxima"},"geometry":{"type":"Point","coordinates":[-48.443,-1.261]}},{"type":"Feature","properties":{"count":1,"display":"Área com infraestrutura próxima"},"geometry":{"type":"Point","coordinates":[-48.443,-1.249]}},{"type":"Feature","properties":{"count":2,"display":"Área com infraestrutura próxima"},"geometry":{"type":"Point","coordinates":[-48.442,-1.262]}},{"type":"Feature","properties":{"count":1,"display":"Área com infraestrutura próxima"},"geometry":{"type":"Point","coordinates":[-48.442,-1.248]}},{"type":"Feature","properties":{"count":1,"display":"Área com infraestrutura próxima"},"geometry":{"type":"Point","coordinates":[-48.442,-1.247]}},{"type":"Feature","properties":{"count":1,"display":"Área com infraestrutura próxima"},"geometry":{"type":"Point","coordinates":[-48.441,-1.262]}},{"type":"Feature","properties":{"count":1,"display":"Área com infraestrutura próxima"},"geometry":{"type":"Point","coordinates":[-48.441,-1.246]}},{"type":"Feature","properties":{"count":1,"display":"Área com infraestrutura próxima"},"geometry":{"type":"Point","coordinates":[-48.44,-1.237]}},{"type":"Feature","properties":{"count":1,"display":"Área com infraestrutura próxima"},"geometry":{"type":"Point","coordinates":[-48.439,-1.275]}},{"type":"Feature","properties":{"count":1,"display":"Área com infraestrutura próxima"},"geometry":{"type":"Point","coordinates":[-48.439,-1.267]}},{"type":"Feature","properties":{"count":1,"display":"Área com infraestrutura próxima"},"geometry":{"type":"Point","coordinates":[-48.439,-1.262]}},{"type":"Feature","properties":{"count":1,"display":"Área com infraestrutura próxima"},"geometry":{"type":"Point","coordinates":[-48.439,-1.242]}},{"type":"Feature","properties":{"count":1,"display":"Área com infraestrutura próxima"},"geometry":{"type":"Point","coordinates":[-48.439,-1.241]}},{"type":"Feature","properties":{"count":1,"display":"Área com infraestrutura próxima"},"geometry":{"type":"Point","coordinates":[-48.439,-1.238]}},{"type":"Feature","properties":{"count":1,"display":"Área com infraestrutura próxima"},"geometry":{"type":"Point","coordinates":[-48.439,-1.237]}},{"type":"Feature","properties":{"count":2,"display":"Área com infraestrutura próxima"},"geometry":{"type":"Point","coordinates":[-48.438,-1.27]}},{"type":"Feature","properties":{"count":1,"display":"Área com infraestrutura próxima"},"geometry":{"type":"Point","coordinates":[-48.438,-1.267]}},{"type":"Feature","properties":{"count":1,"display":"Área com infraestrutura próxima"},"geometry":{"type":"Point","coordinates":[-48.438,-1.264]}},{"type":"Feature","properties":{"count":1,"display":"Área com infraestrutura próxima"},"geometry":{"type":"Point","coordinates":[-48.438,-1.24]}},{"type":"Feature","properties":{"count":1,"display":"Área com infraestrutura próxima"},"geometry":{"type":"Point","coordinates":[-48.437,-1.27]}},{"type":"Feature","properties":{"count":1,"display":"Área com infraestrutura próxima"},"geometry":{"type":"Point","coordinates":[-48.437,-1.269]}},{"type":"Feature","properties":{"count":1,"display":"Área com infraestrutura próxima"},"geometry":{"type":"Point","coordinates":[-48.437,-1.264]}},{"type":"Feature","properties":{"count":1,"display":"Área com infraestrutura próxima"},"geometry":{"type":"Point","coordinates":[-48.437,-1.263]}},{"type":"Feature","properties":{"count":1,"display":"Área com infraestrutura próxima"},"geometry":{"type":"Point","coordinates":[-48.437,-1.262]}},{"type":"Feature","properties":{"count":1,"display":"Área com infraestrutura próxima"},"geometry":{"type":"Point","coordinates":[-48.436,-1.279]}},{"type":"Feature","properties":{"count":3,"display":"Área com infraestrutura próxima"},"geometry":{"type":"Point","coordinates":[-48.436,-1.271]}},{"type":"Feature","properties":{"count":2,"display":"Área com infraestrutura próxima"},"geometry":{"type":"Point","coordinates":[-48.436,-1.27]}},{"type":"Feature","properties":{"count":1,"display":"Área com infraestrutura próxima"},"geometry":{"type":"Point","coordinates":[-48.436,-1.265]}},{"type":"Feature","properties":{"count":1,"display":"Área com infraestrutura próxima"},"geometry":{"type":"Point","coordinates":[-48.436,-1.264]}},{"type":"Feature","properties":{"count":1,"display":"Área com infraestrutura próxima"},"geometry":{"type":"Point","coordinates":[-48.436,-1.263]}},{"type":"Feature","properties":{"count":2,"display":"Área com infraestrutura próxima"},"geometry":{"type":"Point","coordinates":[-48.436,-1.239]}},{"type":"Feature","properties":{"count":1,"display":"Área com infraestrutura próxima"},"geometry":{"type":"Point","coordinates":[-48.435,-1.272]}},{"type":"Feature","properties":{"count":1,"display":"Área com infraestrutura próxima"},"geometry":{"type":"Point","coordinates":[-48.435,-1.271]}},{"type":"Feature","properties":{"count":1,"display":"Área com infraestrutura próxima"},"geometry":{"type":"Point","coordinates":[-48.435,-1.264]}},{"type":"Feature","properties":{"count":1,"display":"Área com infraestrutura próxima"},"geometry":{"type":"Point","coordinates":[-48.435,-1.24]}},{"type":"Feature","properties":{"count":1,"display":"Área com infraestrutura próxima"},"geometry":{"type":"Point","coordinates":[-48.435,-1.238]}},{"type":"Feature","properties":{"count":1,"display":"Área com infraestrutura próxima"},"geometry":{"type":"Point","coordinates":[-48.434,-1.274]}},{"type":"Feature","properties":{"count":1,"display":"Área com infraestrutura próxima"},"geometry":{"type":"Point","coordinates":[-48.434,-1.273]}},{"type":"Feature","properties":{"count":1,"display":"Área com infraestrutura próxima"},"geometry":{"type":"Point","coordinates":[-48.434,-1.271]}},{"type":"Feature","properties":{"count":1,"display":"Área com infraestrutura próxima"},"geometry":{"type":"Point","coordinates":[-48.434,-1.264]}},{"type":"Feature","properties":{"count":1,"display":"Área com infraestrutura próxima"},"geometry":{"type":"Point","coordinates":[-48.434,-1.234]}},{"type":"Feature","properties":{"count":1,"display":"Área com infraestrutura próxima"},"geometry":{"type":"Point","coordinates":[-48.433,-1.278]}},{"type":"Feature","properties":{"count":1,"display":"Área com infraestrutura próxima"},"geometry":{"type":"Point","coordinates":[-48.433,-1.273]}},{"type":"Feature","properties":{"count":1,"display":"Área com infraestrutura próxima"},"geometry":{"type":"Point","coordinates":[-48.433,-1.272]}},{"type":"Feature","properties":{"count":1,"display":"Área com infraestrutura próxima"},"geometry":{"type":"Point","coordinates":[-48.433,-1.271]}},{"type":"Feature","properties":{"count":2,"display":"Área com infraestrutura próxima"},"geometry":{"type":"Point","coordinates":[-48.433,-1.264]}},{"type":"Feature","properties":{"count":1,"display":"Área com infraestrutura próxima"},"geometry":{"type":"Point","coordinates":[-48.433,-1.241]}},{"type":"Feature","properties":{"count":1,"display":"Área com infraestrutura próxima"},"geometry":{"type":"Point","coordinates":[-48.433,-1.24]}},{"type":"Feature","properties":{"count":1,"display":"Área com infraestrutura próxima"},"geometry":{"type":"Point","coordinates":[-48.433,-1.238]}},{"type":"Feature","properties":{"count":1,"display":"Área com infraestrutura próxima"},"geometry":{"type":"Point","coordinates":[-48.433,-1.235]}},{"type":"Feature","properties":{"count":1,"display":"Área com infraestrutura próxima"},"geometry":{"type":"Point","coordinates":[-48.432,-1.278]}},{"type":"Feature","properties":{"count":3,"display":"Área com infraestrutura próxima"},"geometry":{"type":"Point","coordinates":[-48.432,-1.276]}},{"type":"Feature","properties":{"count":1,"display":"Área com infraestrutura próxima"},"geometry":{"type":"Point","coordinates":[-48.432,-1.273]}},{"type":"Feature","properties":{"count":1,"display":"Área com infraestrutura próxima"},"geometry":{"type":"Point","coordinates":[-48.432,-1.266]}},{"type":"Feature","properties":{"count":2,"display":"Área com infraestrutura próxima"},"geometry":{"type":"Point","coordinates":[-48.432,-1.262]}},{"type":"Feature","properties":{"count":1,"display":"Área com infraestrutura próxima"},"geometry":{"type":"Point","coordinates":[-48.432,-1.241]}},{"type":"Feature","properties":{"count":2,"display":"Área com infraestrutura próxima"},"geometry":{"type":"Point","coordinates":[-48.432,-1.24]}},{"type":"Feature","properties":{"count":1,"display":"Área com infraestrutura próxima"},"geometry":{"type":"Point","coordinates":[-48.431,-1.271]}},{"type":"Feature","properties":{"count":1,"display":"Área com infraestrutura próxima"},"geometry":{"type":"Point","coordinates":[-48.431,-1.266]}},{"type":"Feature","properties":{"count":1,"display":"Área com infraestrutura próxima"},"geometry":{"type":"Point","coordinates":[-48.431,-1.24]}},{"type":"Feature","properties":{"count":1,"display":"Área com infraestrutura próxima"},"geometry":{"type":"Point","coordinates":[-48.431,-1.236]}},{"type":"Feature","properties":{"count":2,"display":"Área com infraestrutura próxima"},"geometry":{"type":"Point","coordinates":[-48.43,-1.266]}},{"type":"Feature","properties":{"count":1,"display":"Área com infraestrutura próxima"},"geometry":{"type":"Point","coordinates":[-48.43,-1.241]}},{"type":"Feature","properties":{"count":1,"display":"Área com infraestrutura próxima"},"geometry":{"type":"Point","coordinates":[-48.43,-1.232]}},{"type":"Feature","properties":{"count":1,"display":"Área com infraestrutura próxima"},"geometry":{"type":"Point","coordinates":[-48.429,-1.277]}},{"type":"Feature","properties":{"count":1,"display":"Área com infraestrutura próxima"},"geometry":{"type":"Point","coordinates":[-48.429,-1.237]}},{"type":"Feature","properties":{"count":1,"display":"Área com infraestrutura próxima"},"geometry":{"type":"Point","coordinates":[-48.429,-1.235]}},{"type":"Feature","properties":{"count":1,"display":"Área com infraestrutura próxima"},"geometry":{"type":"Point","coordinates":[-48.428,-1.276]}},{"type":"Feature","properties":{"count":1,"display":"Área com infraestrutura próxima"},"geometry":{"type":"Point","coordinates":[-48.428,-1.274]}},{"type":"Feature","properties":{"count":1,"display":"Área com infraestrutura próxima"},"geometry":{"type":"Point","coordinates":[-48.428,-1.241]}},{"type":"Feature","properties":{"count":1,"display":"Área com infraestrutura próxima"},"geometry":{"type":"Point","coordinates":[-48.428,-1.238]}},{"type":"Feature","properties":{"count":1,"display":"Área com infraestrutura próxima"},"geometry":{"type":"Point","coordinates":[-48.428,-1.233]}},{"type":"Feature","properties":{"count":1,"display":"Área com infraestrutura próxima"},"geometry":{"type":"Point","coordinates":[-48.428,-1.231]}},{"type":"Feature","properties":{"count":1,"display":"Área com infraestrutura próxima"},"geometry":{"type":"Point","coordinates":[-48.425,-1.266]}},{"type":"Feature","properties":{"count":1,"display":"Área com infraestrutura próxima"},"geometry":{"type":"Point","coordinates":[-48.425,-1.241]}},{"type":"Feature","properties":{"count":1,"display":"Área com infraestrutura próxima"},"geometry":{"type":"Point","coordinates":[-48.424,-1.243]}},{"type":"Feature","properties":{"count":1,"display":"Área com infraestrutura próxima"},"geometry":{"type":"Point","coordinates":[-48.424,-1.24]}},{"type":"Feature","properties":{"count":1,"display":"Área com infraestrutura próxima"},"geometry":{"type":"Point","coordinates":[-48.423,-1.243]}},{"type":"Feature","properties":{"count":1,"display":"Área com infraestrutura próxima"},"geometry":{"type":"Point","coordinates":[-48.423,-1.242]}}]}